[{"OBJECT_NAME":"STARLINK-4205","OBJECT_ID":"2022-083AU","EPOCH":"2026-03-09T13:18:00.505728","MEAN_MOTION":15.08845019,"ECCENTRICITY":0.00015817,"INCLINATION":53.2172,"RA_OF_ASC_NODE":174.6696,"ARG_OF_PERICENTER":62.319,"MEAN_ANOMALY":297.7963,"EPHEMERIS_TYPE":0,"CLASSIFICATION_TYPE":"U","NORAD_CAT_ID":53174,"ELEMENT_SET_NO":999,"REV_AT_EPOCH":20119,"BSTAR":2.38264e-6,"MEAN_MOTION_DOT":-2.5e-6,"MEAN_MOTION_DDOT":0},{"OBJECT_NAME":"NOAA 16 DEB","OBJECT_ID":"2000-055BZ","EPOCH":"2026-03-09T09:57:46.840608","MEAN_MOTION":15.04968987,"ECCENTRICITY":0.00133628,"INCLINATION":98.8453,"RA_OF_ASC_NODE":286.076,"ARG_OF_PERICENTER":194.204,"MEAN_ANOMALY":165.8809,"EPHEMERIS_TYPE":0,"CLASSIFICATION_TYPE":"U","NORAD_CAT_ID":41142,"ELEMENT_SET_NO":999,"REV_AT_EPOCH":53866,"BSTAR":0.0051237154,"MEAN_MOTION_DOT":0.00073426,"MEAN_MOTION_DDOT":0}]
